{
  "data": [

    {
      "parentId": "",
      "companyId": "nano-vip",
      "locationId": "nano-vip-phuket",
      "id": "nano-vip-management",
      "name": "Management",
      "name_th": "ผู้บริหาร"
    },
    {
      "parentId": "",
      "companyId": "nano-vip",
      "locationId": "nano-vip-phuket",
      "id": "nano-vip-accountant",
      "name": "Accountant",
      "name_th": "นักบัญชี"
    },
    {
      "parentId": "",
      "companyId": "nano-vip",
      "locationId": "nano-vip-phuket",
      "id": "nano-vip-content-writer",
      "name": "Content Writer",
      "name_th": "คอนเทนต์"
    },
    {
      "parentId": "",
      "companyId": "nano-vip",
      "locationId": "nano-vip-phuket",
      "id": "nano-vip-programmer",
      "name": "Programmer",
      "name_th": "โปรแกรมเมอร์"
    },
    {
      "parentId": "",
      "companyId": "nano-vip",
      "locationId": "nano-vip-phuket",
      "id": "nano-vip-driver",
      "name": "Driver",
      "name_th": "คนขับรถ"
    },
    {
      "parentId": "",
      "companyId": "nano-vip",
      "locationId": "nano-vip-phuket",
      "id": "nano-vip-operator",
      "name": "Operator",
      "name_th": "พนักงานปฏิบัติการ"
    },

    {
      "parentId": "",
      "companyId": "nano-vip",
      "locationId": "nano-vip-bangkok",
      "id": "nano-vip-bangkok-management",
      "name": "Management",
      "name_th": "ผู้บริหาร"
    },
    {
      "parentId": "",
      "companyId": "nano-vip",
      "locationId": "nano-vip-bangkok",
      "id": "nano-vip-bangkok-accountant",
      "name": "Accountant",
      "name_th": "นักบัญชี"
    },
    {
      "parentId": "",
      "companyId": "nano-vip",
      "locationId": "nano-vip-bangkok",
      "id": "nano-vip-bangkok-content-writer",
      "name": "Content Writer",
      "name_th": "คอนเทนต์"
    },
    {
      "parentId": "",
      "companyId": "nano-vip",
      "locationId": "nano-vip-bangkok",
      "id": "nano-vip-bangkok-programmer",
      "name": "Programmer",
      "name_th": "โปรแกรมเมอร์"
    },
    {
      "parentId": "",
      "companyId": "nano-vip",
      "locationId": "nano-vip-bangkok",
      "id": "nano-vip-bangkok-driver",
      "name": "Driver",
      "name_th": "คนขับรถ"
    },
    {
      "parentId": "",
      "companyId": "nano-vip",
      "locationId": "nano-vip-bangkok",
      "id": "nano-vip-bangkok-operator",
      "name": "Operator",
      "name_th": "พนักงานปฏิบัติการ"
    },



    {
      "parentId": "chalong",
      "companyId": "nano-store",
      "locationId": "nano-store-phuket",
      "id": "nano-store-chalong-hr",
      "name": "HR",
      "name_th": "ฝ่ายทรัพยากรบุคคล"
    },

    {
      "parentId": "chalong",
      "companyId": "nano-store",
      "locationId": "nano-store-phuket",
      "id": "nano-store-chalong-manager",
      "name": "Manager",
      "name_th": "ผู้จัดการ"
    },
    {
      "parentId": "chalong",
      "companyId": "nano-store",
      "locationId": "nano-store-phuket",
      "id": "nano-store-chalong-accountant",
      "name": "Accountant",
      "name_th": "นักบัญชี"

    },
    {
      "parentId": "chalong",
      "companyId": "nano-store",
      "locationId": "nano-store-phuket",
      "id": "nano-store-chalong-programmer",
      "name": "Programmer",
      "name_th": "โปรแกรมเมอร์"

    },
    {
      "parentId": "chalong",
      "companyId": "nano-store",
      "locationId": "nano-store-phuket",
      "id": "nano-store-chalong-salesman",
      "name": "Salesman",
      "name_th": "พนักงานขาย"

    },
    {
      "parentId": "chalong",
      "companyId": "nano-store",
      "locationId": "nano-store-phuket",
      "id": "nano-store-chalong-purchase",
      "name": "Purchase",
      "name_th": "ฝ่ายจัดซื้อ"

    },
    {
      "parentId": "chalong",
      "companyId": "nano-store",
      "locationId": "nano-store-phuket",
      "id": "nano-store-chalong-security",
      "name": "Security",
      "name_th": "เจ้าหน้าที่รักษาความปลอดภัย"

    },
    {
      "parentId": "chalong",
      "companyId": "nano-store",
      "locationId": "nano-store-phuket",
      "id": "nano-store-chalong-housekeeper",
      "name": "Housekeeper",
      "name_th": "พนักงานทำความสะอาด"

    },
    {
      "parentId": "chalong",
      "companyId": "nano-store",
      "locationId": "nano-store-phuket",
      "id": "nano-store-chalong-shipper",
      "name": "Shipper",
      "name_th": "พนักงานขนส่ง"
    },
    {
      "parentId": "chalong",
      "companyId": "nano-store",
      "locationId": "nano-store-phuket",
      "id": "nano-store-chalong-management",
      "name": "Management",
      "name_th": "ผู้บริหาร"

    },
    {
      "parentId": "chalong",
      "companyId": "nano-store",
      "locationId": "nano-store-phuket",
      "id": "nano-store-chalong-warehouse-worker",
      "name": "Warehouse Worker",
      "name_th": "พนักงานคลังสินค้า"

    },
    {
      "parentId": "chalong",
      "companyId": "nano-store",
      "locationId": "nano-store-phuket",
      "id": "nano-store-chalong-surveyor",
      "name": "Surveyor",
      "name_th": "เซอร์เวย์"

    },








    {
      "parentId": "thepharak",
      "companyId": "nano-store",
      "locationId": "nano-store-bangkok",
      "id": "nano-store-thepharak-hr",
      "name": "HR",
      "name_th": "ฝ่ายทรัพยากรบุคคล"
    },

    {
      "parentId": "thepharak",
      "companyId": "nano-store",
      "locationId": "nano-store-bangkok",
      "id": "nano-store-thepharak-manager",
      "name": "Manager",
      "name_th": "ผู้จัดการ"

    },
    {
      "parentId": "thepharak",
      "companyId": "nano-store",
      "locationId": "nano-store-bangkok",
      "id": "nano-store-thepharak-accountant",
      "name": "Accountant",
      "name_th": "นักบัญชี"

    },
    {
      "parentId": "thepharak",
      "companyId": "nano-store",
      "locationId": "nano-store-bangkok",
      "id": "nano-store-thepharak-programmer",
      "name": "Programmer",
      "name_th": "โปรแกรมเมอร์"

    },
    {
      "parentId": "thepharak",
      "companyId": "nano-store",
      "locationId": "nano-store-bangkok",
      "id": "nano-store-thepharak-salesman",
      "name": "Salesman",
      "name_th": "พนักงานขาย"

    },
    {
      "parentId": "thepharak",
      "companyId": "nano-store",
      "locationId": "nano-store-bangkok",
      "id": "nano-store-thepharak-purchase",
      "name": "Purchase",
      "name_th": "ฝ่ายจัดซื้อ"

    },
    {
      "parentId": "thepharak",
      "companyId": "nano-store",
      "locationId": "nano-store-bangkok",
      "id": "nano-store-thepharak-security",
      "name": "Security",
      "name_th": "เจ้าหน้าที่รักษาความปลอดภัย"

    },
    {
      "parentId": "thepharak",
      "companyId": "nano-store",
      "locationId": "nano-store-bangkok",
      "id": "nano-store-thepharak-housekeeper",
      "name": "Housekeeper",
      "name_th": "พนักงานทำความสะอาด"

    },
    {
      "parentId": "thepharak",
      "companyId": "nano-store",
      "locationId": "nano-store-bangkok",
      "id": "nano-store-thepharak-shipper",
      "name": "Shipper",
      "name_th": "พนักงานขนส่ง"

    },
    {
      "parentId": "thepharak",
      "companyId": "nano-store",
      "locationId": "nano-store-bangkok",
      "id": "nano-store-thepharak-management",
      "name": "Management",
      "name_th": "ผู้บริหาร"

    },
    {
      "parentId": "thepharak",
      "companyId": "nano-store",
      "locationId": "nano-store-bangkok",
      "id": "nano-store-thepharak-warehouse-worker",
      "name": "Warehouse Worker",
      "name_th": "พนักงานคลังสินค้า"

    },
    {
      "parentId": "thepharak",
      "companyId": "nano-store",
      "locationId": "nano-store-bangkok",
      "id": "nano-store-thepharak-surveyor",
      "name": "Surveyor",
      "name_th": "เซอร์เวย์"

    },






    {
      "parentId": "vacharaphol",
      "companyId": "nano-store",
      "locationId": "nano-store-bangkok",
      "id": "nano-store-vacharaphol-hr",
      "name": "HR",
      "name_th": "ฝ่ายทรัพยากรบุคคล"
    },

    {
      "parentId": "vacharaphol",
      "companyId": "nano-store",
      "locationId": "nano-store-bangkok",
      "id": "nano-store-vacharaphol-manager",
      "name": "Manager",
      "name_th": "ผู้จัดการ"

    },
    {
      "parentId": "vacharaphol",
      "companyId": "nano-store",
      "locationId": "nano-store-bangkok",
      "id": "nano-store-vacharaphol-accountant",
      "name": "Accountant",
      "name_th": "นักบัญชี"

    },
    {
      "parentId": "vacharaphol",
      "companyId": "nano-store",
      "locationId": "nano-store-bangkok",
      "id": "nano-store-vacharaphol-programmer",
      "name": "Programmer",
      "name_th": "โปรแกรมเมอร์"

    },
    {
      "parentId": "vacharaphol",
      "companyId": "nano-store",
      "locationId": "nano-store-bangkok",
      "id": "nano-store-vacharaphol-salesman",
      "name": "Salesman",
      "name_th": "พนักงานขาย"

    },
    {
      "parentId": "vacharaphol",
      "companyId": "nano-store",
      "locationId": "nano-store-bangkok",
      "id": "nano-store-vacharaphol-purchase",
      "name": "Purchase",
      "name_th": "ฝ่ายจัดซื้อ"

    },
    {
      "parentId": "vacharaphol",
      "companyId": "nano-store",
      "locationId": "nano-store-bangkok",
      "id": "nano-store-vacharaphol-security",
      "name": "Security",
      "name_th": "เจ้าหน้าที่รักษาความปลอดภัย"

    },
    {
      "parentId": "vacharaphol",
      "companyId": "nano-store",
      "locationId": "nano-store-bangkok",
      "id": "nano-store-vacharaphol-housekeeper",
      "name": "Housekeeper",
      "name_th": "พนักงานทำความสะอาด"

    },
    {
      "parentId": "vacharaphol",
      "companyId": "nano-store",
      "locationId": "nano-store-bangkok",
      "id": "nano-store-vacharaphol-shipper",
      "name": "Shipper",
      "name_th": "พนักงานขนส่ง"

    },
    {
      "parentId": "vacharaphol",
      "companyId": "nano-store",
      "locationId": "nano-store-bangkok",
      "id": "nano-store-vacharaphol-management",
      "name": "Management",
      "name_th": "ผู้บริหาร"

    },
    {
      "parentId": "vacharaphol",
      "companyId": "nano-store",
      "locationId": "nano-store-bangkok",
      "id": "nano-store-vacharaphol-warehouse-worker",
      "name": "Warehouse Worker",
      "name_th": "พนักงานคลังสินค้า"

    },
    {
      "parentId": "vacharaphol",
      "companyId": "nano-store",
      "locationId": "nano-store-bangkok",
      "id": "nano-store-vacharaphol-surveyor",
      "name": "Surveyor",
      "name_th": "เซอร์เวย์"

    },


    {
      "parentId": "nawamin",
      "companyId": "nano-store",
      "locationId": "nano-store-bangkok",
      "id": "nano-store-nawamin-hr",
      "name": "HR",
      "name_th": "ฝ่ายทรัพยากรบุคคล"
    },

    {
      "parentId": "nawamin",
      "companyId": "nano-store",
      "locationId": "nano-store-bangkok",
      "id": "nano-store-nawamin-manager",
      "name": "Manager",
      "name_th": "ผู้จัดการ"

    },
    {
      "parentId": "nawamin",
      "companyId": "nano-store",
      "locationId": "nano-store-bangkok",
      "id": "nano-store-nawamin-accountant",
      "name": "Accountant",
      "name_th": "นักบัญชี"

    },
    {
      "parentId": "nawamin",
      "companyId": "nano-store",
      "locationId": "nano-store-bangkok",
      "id": "nano-store-nawamin-programmer",
      "name": "Programmer",
      "name_th": "โปรแกรมเมอร์"

    },
    {
      "parentId": "nawamin",
      "companyId": "nano-store",
      "locationId": "nano-store-bangkok",
      "id": "nano-store-nawamin-salesman",
      "name": "Salesman",
      "name_th": "พนักงานขาย"

    },
    {
      "parentId": "nawamin",
      "companyId": "nano-store",
      "locationId": "nano-store-bangkok",
      "id": "nano-store-nawamin-purchase",
      "name": "Purchase",
      "name_th": "ฝ่ายจัดซื้อ"

    },
    {
      "parentId": "nawamin",
      "companyId": "nano-store",
      "locationId": "nano-store-bangkok",
      "id": "nano-store-nawamin-security",
      "name": "Security",
      "name_th": "เจ้าหน้าที่รักษาความปลอดภัย"

    },
    {
      "parentId": "nawamin",
      "companyId": "nano-store",
      "locationId": "nano-store-bangkok",
      "id": "nano-store-nawamin-housekeeper",
      "name": "Housekeeper",
      "name_th": "พนักงานทำความสะอาด"

    },
    {
      "parentId": "nawamin",
      "companyId": "nano-store",
      "locationId": "nano-store-bangkok",
      "id": "nano-store-nawamin-shipper",
      "name": "Shipper",
      "name_th": "พนักงานขนส่ง"

    },
    {
      "parentId": "nawamin",
      "companyId": "nano-store",
      "locationId": "nano-store-bangkok",
      "id": "nano-store-nawamin-management",
      "name": "Management",
      "name_th": "ผู้บริหาร"

    },
    {
      "parentId": "nawamin",
      "companyId": "nano-store",
      "locationId": "nano-store-bangkok",
      "id": "nano-store-nawamin-warehouse-worker",
      "name": "Warehouse Worker",
      "name_th": "พนักงานคลังสินค้า"

    },
    {
      "parentId": "nawamin",
      "companyId": "nano-store",
      "locationId": "nano-store-bangkok",
      "id": "nano-store-nawamin-surveyor",
      "name": "Surveyor",
      "name_th": "เซอร์เวย์"

    },


    {
      "parentId": "srinagarindra",
      "companyId": "nano-store",
      "locationId": "nano-store-bangkok",
      "id": "nano-store-srinagarindra-hr",
      "name": "HR",
      "name_th": "ฝ่ายทรัพยากรบุคคล"
    },

    {
      "parentId": "srinagarindra",
      "companyId": "nano-store",
      "locationId": "nano-store-bangkok",
      "id": "nano-store-srinagarindra-manager",
      "name": "Manager",
      "name_th": "ผู้จัดการ"

    },
    {
      "parentId": "srinagarindra",
      "companyId": "nano-store",
      "locationId": "nano-store-bangkok",
      "id": "nano-store-srinagarindra-accountant",
        "name": "Accountant",
      "name_th": "นักบัญชี"

    },
    {
      "parentId": "srinagarindra",
      "companyId": "nano-store",
      "locationId": "nano-store-bangkok",
      "id": "nano-store-srinagarindra-programmer",
      "name": "Programmer",
      "name_th": "โปรแกรมเมอร์"

    },
    {
      "parentId": "srinagarindra",
      "companyId": "nano-store",
      "locationId": "nano-store-bangkok",
      "id": "nano-store-srinagarindra-salesman",
      "name": "Salesman",
      "name_th": "พนักงานขาย"

    },
    {
      "parentId": "srinagarindra",
      "companyId": "nano-store",
      "locationId": "nano-store-bangkok",
      "id": "nano-store-srinagarindra-purchase",
      "name": "Purchase",
      "name_th": "ฝ่ายจัดซื้อ"

    },
    {
      "parentId": "srinagarindra",
      "companyId": "nano-store",
      "locationId": "nano-store-bangkok",
      "id": "nano-store-srinagarindra-security",
      "name": "Security",
      "name_th": "เจ้าหน้าที่รักษาความปลอดภัย"

    },
    {
      "parentId": "srinagarindra",
      "companyId": "nano-store",
      "locationId": "nano-store-bangkok",
      "id": "nano-store-srinagarindra-housekeeper",
      "name": "Housekeeper",
      "name_th": "พนักงานทำความสะอาด"

    },
    {
      "parentId": "srinagarindra",
      "companyId": "nano-store",
      "locationId": "nano-store-bangkok",
      "id": "nano-store-srinagarindra-shipper",
      "name": "Shipper",
      "name_th": "พนักงานขนส่ง"

    },
    {
      "parentId": "srinagarindra",
      "companyId": "nano-store",
      "locationId": "nano-store-bangkok",
      "id": "nano-store-srinagarindra-management",
      "name": "Management",
      "name_th": "ผู้บริหาร"

    },
    {
      "parentId": "srinagarindra",
      "companyId": "nano-store",
      "locationId": "nano-store-bangkok",
      "id": "nano-store-srinagarindra-warehouse-worker",
      "name": "Warehouse Worker",
      "name_th": "พนักงานคลังสินค้า"

    },
    {
      "parentId": "srinagarindra",
      "companyId": "nano-store",
      "locationId": "nano-store-bangkok",
      "id": "nano-store-srinagarindra-surveyor",
      "name": "Surveyor",
      "name_th": "เซอร์เวย์"

    },










    {
      "parentId": "bangphli",
      "companyId": "nano-store",
      "locationId": "nano-store-bangkok",
      "id": "nano-store-bangphli-hr",
      "name": "HR",
      "name_th": "ฝ่ายทรัพยากรบุคคล"
    },

    {
      "parentId": "bangphli",
      "companyId": "nano-store",
      "locationId": "nano-store-bangkok",
      "id": "nano-store-bangphli-manager",
      "name": "Manager",
      "name_th": "ผู้จัดการ"

    },
    {
      "parentId": "bangphli",
      "companyId": "nano-store",
      "locationId": "nano-store-bangkok",
      "id": "nano-store-bangphli-accountant",
      "name": "Accountant",
      "name_th": "นักบัญชี"

    },
    {
      "parentId": "bangphli",
      "companyId": "nano-store",
      "locationId": "nano-store-bangkok",
      "id": "nano-store-bangphli-programmer",
      "name": "Programmer",
      "name_th": "โปรแกรมเมอร์"

    },
    {
      "parentId": "bangphli",
      "companyId": "nano-store",
      "locationId": "nano-store-bangkok",
      "id": "nano-store-bangphli-salesman",
      "name": "Salesman",
      "name_th": "พนักงานขาย"

    },
    {
      "parentId": "bangphli",
      "companyId": "nano-store",
      "locationId": "nano-store-bangkok",
      "id": "nano-store-bangphli-purchase",
      "name": "Purchase",
      "name_th": "ฝ่ายจัดซื้อ"

    },
    {
      "parentId": "bangphli",
      "companyId": "nano-store",
      "locationId": "nano-store-bangkok",
      "id": "nano-store-bangphli-security",
      "name": "Security",
      "name_th": "เจ้าหน้าที่รักษาความปลอดภัย"

    },
    {
      "parentId": "bangphli",
      "companyId": "nano-store",
      "locationId": "nano-store-bangkok",
      "id": "nano-store-bangphli-housekeeper",
      "name": "Housekeeper",
      "name_th": "พนักงานทำความสะอาด"

    },
    {
      "parentId": "bangphli",
      "companyId": "nano-store",
      "locationId": "nano-store-bangkok",
      "id": "nano-store-bangphli-shipper",
      "name": "Shipper",
      "name_th": "พนักงานขนส่ง"

    },
    {
      "parentId": "bangphli",
      "companyId": "nano-store",
      "locationId": "nano-store-bangkok",
      "id": "nano-store-bangphli-management",
      "name": "Management",
      "name_th": "ผู้บริหาร"

    },
    {
      "parentId": "bangphli",
      "companyId": "nano-store",
      "locationId": "nano-store-bangkok",
      "id": "nano-store-bangphli-warehouse-worker",
      "name": "Warehouse Worker",
      "name_th": "พนักงานคลังสินค้า"

    },
    {
      "parentId": "bangphli",
      "companyId": "nano-store",
      "locationId": "nano-store-bangkok",
      "id": "nano-store-bangphli-surveyor",
      "name": "Surveyor",
      "name_th": "เซอร์เวย์"

    },




    {
      "parentId": "ratchadaphisek",
      "companyId": "nano-store",
      "locationId": "nano-store-bangkok",
      "id": "nano-store-ratchadaphisek-hr",
      "name": "HR",
      "name_th": "ฝ่ายทรัพยากรบุคคล"
    },

    {
      "parentId": "ratchadaphisek",
      "companyId": "nano-store",
      "locationId": "nano-store-bangkok",
      "id": "nano-store-ratchadaphisek-manager",
      "name": "Manager",
      "name_th": "ผู้จัดการ"

    },
    {
      "parentId": "ratchadaphisek",
      "companyId": "nano-store",
      "locationId": "nano-store-bangkok",
      "id": "nano-store-ratchadaphisek-accountant",
      "name": "Accountant",
      "name_th": "นักบัญชี"

    },
    {
      "parentId": "ratchadaphisek",
      "companyId": "nano-store",
      "locationId": "nano-store-bangkok",
      "id": "nano-store-ratchadaphisek-programmer",
      "name": "Programmer",
      "name_th": "โปรแกรมเมอร์"

    },
    {
      "parentId": "ratchadaphisek",
      "companyId": "nano-store",
      "locationId": "nano-store-bangkok",
      "id": "nano-store-ratchadaphisek-salesman",
      "name": "Salesman",
      "name_th": "พนักงานขาย"

    },
    {
      "parentId": "ratchadaphisek",
      "companyId": "nano-store",
      "locationId": "nano-store-bangkok",
      "id": "nano-store-ratchadaphisek-purchase",
      "name": "Purchase",
      "name_th": "ฝ่ายจัดซื้อ"

    },
    {
      "parentId": "ratchadaphisek",
      "companyId": "nano-store",
      "locationId": "nano-store-bangkok",
      "id": "nano-store-ratchadaphisek-security",
      "name": "Security",
      "name_th": "เจ้าหน้าที่รักษาความปลอดภัย"

    },
    {
      "parentId": "ratchadaphisek",
      "companyId": "nano-store",
      "locationId": "nano-store-bangkok",
      "id": "nano-store-ratchadaphisek-housekeeper",
      "name": "Housekeeper",
      "name_th": "พนักงานทำความสะอาด"

    },
    {
      "parentId": "ratchadaphisek",
      "companyId": "nano-store",
      "locationId": "nano-store-bangkok",
      "id": "nano-store-ratchadaphisek-shipper",
      "name": "Shipper",
      "name_th": "พนักงานขนส่ง"

    },
    {
      "parentId": "ratchadaphisek",
      "companyId": "nano-store",
      "locationId": "nano-store-bangkok",
      "id": "nano-store-ratchadaphisek-management",
      "name": "Management",
      "name_th": "ผู้บริหาร"

    },
    {
      "parentId": "ratchadaphisek",
      "companyId": "nano-store",
      "locationId": "nano-store-bangkok",
      "id": "nano-store-ratchadaphisek-warehouse-worker",
      "name": "Warehouse Worker",
      "name_th": "พนักงานคลังสินค้า"

    },
    {
      "parentId": "ratchadaphisek",
      "companyId": "nano-store",
      "locationId": "nano-store-bangkok",
      "id": "nano-store-ratchadaphisek-surveyor",
      "name": "Surveyor",
      "name_th": "เซอร์เวย์"

    },







    {
      "parentId": "bangphli",
      "companyId": "nano-store",
      "locationId": "nano-store-bangkok",
      "id": "nano-store-bangphli-hr",
      "name": "HR",
      "name_th": "ฝ่ายทรัพยากรบุคคล"
    },

    {
      "parentId": "bangphli",
      "companyId": "nano-store",
      "locationId": "nano-store-bangkok",
      "id": "nano-store-bangphli-manager",
      "name": "Manager",
      "name_th": "ผู้จัดการ"

    },
    {
      "parentId": "bangphli",
      "companyId": "nano-store",
      "locationId": "nano-store-bangkok",
      "id": "nano-store-bangphli-accountant",
      "name": "Accountant",
      "name_th": "นักบัญชี"

    },
    {
      "parentId": "bangphli",
      "companyId": "nano-store",
      "locationId": "nano-store-bangkok",
      "id": "nano-store-bangphli-programmer",
      "name": "Programmer",
      "name_th": "โปรแกรมเมอร์"

    },
    {
      "parentId": "bangphli",
      "companyId": "nano-store",
      "locationId": "nano-store-bangkok",
      "id": "nano-store-bangphli-salesman",
      "name": "Salesman",
      "name_th": "พนักงานขาย"

    },
    {
      "parentId": "bangphli",
      "companyId": "nano-store",
      "locationId": "nano-store-bangkok",
      "id": "nano-store-bangphli-purchase",
      "name": "Purchase",
      "name_th": "ฝ่ายจัดซื้อ"

    },
    {
      "parentId": "bangphli",
      "companyId": "nano-store",
      "locationId": "nano-store-bangkok",
      "id": "nano-store-bangphli-security",
      "name": "Security",
      "name_th": "เจ้าหน้าที่รักษาความปลอดภัย"

    },
    {
      "parentId": "bangphli",
      "companyId": "nano-store",
      "locationId": "nano-store-bangkok",
      "id": "nano-store-bangphli-housekeeper",
      "name": "Housekeeper",
      "name_th": "พนักงานทำความสะอาด"

    },
    {
      "parentId": "bangphli",
      "companyId": "nano-store",
      "locationId": "nano-store-bangkok",
      "id": "nano-store-bangphli-shipper",
      "name": "Shipper",
      "name_th": "พนักงานขนส่ง"

    },
    {
      "parentId": "bangphli",
      "companyId": "nano-store",
      "locationId": "nano-store-bangkok",
      "id": "nano-store-bangphli-management",
      "name": "Management",
      "name_th": "ผู้บริหาร"

    },
    {
      "parentId": "bangphli",
      "companyId": "nano-store",
      "locationId": "nano-store-bangkok",
      "id": "nano-store-bangphli-warehouse-worker",
      "name": "Warehouse Worker",
      "name_th": "พนักงานคลังสินค้า"

    },
    {
      "parentId": "bangphli",
      "companyId": "nano-store",
      "locationId": "nano-store-bangkok",
      "id": "nano-store-bangphli-surveyor",
      "name": "Surveyor",
      "name_th": "เซอร์เวย์"

    },













    {
      "parentId": "sugar-daddy",
      "companyId": "nano-entertainment",
      "locationId": "nano-entertainment-phuket",
      "id": "nano-entertainment-phuket-cashier",
      "name": "Cashier",
      "name_th": "พนักงานเก็บเงิน"
    },

    {
      "parentId": "sugar-daddy",
      "companyId": "nano-entertainment",
      "locationId": "nano-entertainment-phuket",
      "id": "nano-entertainment-phuket-sale",
      "name": "Sale",
      "name_th": "พนักงานขาย"

    },
    {
      "parentId": "sugar-daddy",
      "companyId": "nano-entertainment",
      "locationId": "nano-entertainment-phuket",
      "id": "nano-entertainment-phuket-management",
      "name": "Management",
      "name_th": "ผู้บริหาร" 

    },
    {
      "parentId": "sugar-daddy",
      "companyId": "nano-entertainment",
      "locationId": "nano-entertainment-phuket",
      "id": "nano-entertainment-phuket-accountant",
      "name": "Accountant",
      "name_th": "นักบัญชี"  

    },
    {
      "parentId": "sugar-daddy",
      "companyId": "nano-entertainment",
      "locationId": "nano-entertainment-phuket",
      "id": "nano-entertainment-phuket-captain",
      "name": "Captain",
      "name_th": "กัปตัน"

    },
    {
      "parentId": "sugar-daddy",
      "companyId": "nano-entertainment",
      "locationId": "nano-entertainment-phuket",
      "id": "nano-entertainment-phuket-head-chef",
      "name": "Head Chef",
      "name_th": "หัวหน้าเชฟ"

    },
    {
      "parentId": "sugar-daddy",
      "companyId": "nano-entertainment",
      "locationId": "nano-entertainment-phuket",
      "id": "nano-entertainment-phuket-sous-chef",
      "name": "Sous Chef",
      "name_th": "ผู้ช่วยเชฟ"

    },
    {
      "parentId": "sugar-daddy",
      "companyId": "nano-entertainment",
      "locationId": "nano-entertainment-phuket",
      "id": "nano-entertainment-phuket-waiter-waitress",
      "name": "Waiter/Waitress",
      "name_th": "พนักงานเสิร์ฟ"

    },
    {
      "parentId": "sugar-daddy",
      "companyId": "nano-entertainment",
      "locationId": "nano-entertainment-phuket",
      "id": "nano-entertainment-phuket-bar-runner",
      "name": "Bar Runner",
      "name_th": "พนักงานบาร์"

    },
    {
      "parentId": "sugar-daddy",
      "companyId": "nano-entertainment",
      "locationId": "nano-entertainment-phuket",
      "id": "nano-entertainment-phuket-dishwasher",
      "name": "Dishwasher",
      "name_th": "พนักงานล้างจาน"

    },


    {
      "parentId": "huapan",
      "companyId": "nano-entertainment",
      "locationId": "nano-entertainment-phuket",
      "id": "nano-entertainment-phuket-cashier",
      "name": "Cashier",
      "name_th": "พนักงานเก็บเงิน"


    },
    {
      "parentId": "huapan",
      "companyId": "nano-entertainment",
      "locationId": "nano-entertainment-phuket",
      "id": "nano-entertainment-phuket-receptionist",
      "name": "Receptionist",
      "name_th": "พนักงานต้อนรับ"

    },
    {
      "parentId": "huapan",
      "companyId": "nano-entertainment",
      "locationId": "nano-entertainment-phuket",
      "id": "nano-entertainment-phuket-management",
      "name": "Management",
      "name_th": "ผู้บริหาร" 

    },
    {
      "parentId": "huapan",
      "companyId": "nano-entertainment",
      "locationId": "nano-entertainment-phuket",
      "id": "nano-entertainment-phuket-accountant",
      "name": "Accountant",
      "name_th": "นักบัญชี"

    },
    {
      "parentId": "huapan",
      "companyId": "nano-entertainment",
      "locationId": "nano-entertainment-phuket",
      "id": "nano-entertainment-phuket-captain",
      "name": "Captain",
      "name_th": "กัปตัน"

    },
    {
      "parentId": "huapan",
      "companyId": "nano-entertainment",
      "locationId": "nano-entertainment-phuket",
      "id": "nano-entertainment-phuket-manager",
      "name": "Manager",
      "name_th": "ผู้บริหาร"

    },
    {
      "parentId": "huapan",
      "companyId": "nano-entertainment",
      "locationId": "nano-entertainment-phuket",
      "id": "nano-entertainment-phuket-assistant-manager",
      "name": "Assistant Manager",
      "name_th": "ผู้ช่วยผู้จัดการ" 

    },
    {
      "parentId": "huapan",
      "companyId": "nano-entertainment",
      "locationId": "nano-entertainment-phuket",
      "id": "nano-entertainment-phuket-bartender",
      "name": "Bartender",
      "name_th": "บาร์เทนเดอร์"

    },
    {
      "parentId": "huapan",
      "companyId": "nano-entertainment",
      "locationId": "nano-entertainment-phuket",
      "id": "nano-entertainment-phuket-waiter-waitress",
      "name": "Waiter/Waitress",
      "name_th": "พนักงานเสิร์ฟ"

    },
    {
      "parentId": "huapan",
      "companyId": "nano-entertainment",
      "locationId": "nano-entertainment-phuket",
      "id": "nano-entertainment-phuket-purchasing",
      "name": "Purchasing",
      "name_th": "ฝ่ายจัดซื้อ"

    },
    {
      "parentId": "huapan",
      "companyId": "nano-entertainment",
      "locationId": "nano-entertainment-phuket",
      "id": "nano-entertainment-phuket-bar-runner",
      "name": "Bar Runner",
      "name_th": "พนักงานบาร์"

    },
    {
      "parentId": "huapan",
      "companyId": "nano-entertainment",
      "locationId": "nano-entertainment-phuket",
      "id": "nano-entertainment-phuket-food-runner",
      "name": "Food Runner",
      "name_th": "เดินอาหาร"

    },
    {
      "parentId": "huapan",
      "companyId": "nano-entertainment",
      "locationId": "nano-entertainment-phuket",
      "id": "nano-entertainment-phuket-housekeeper",
      "name": "Housekeeper",
      "name_th": "พนักงานทำความสะอาด" 

    },
    {
      "parentId": "huapan",
      "companyId": "nano-entertainment",
      "locationId": "nano-entertainment-phuket",
      "id": "nano-entertainment-phuket-singer",
      "name": "Singer",
      "name_th": "นักร้อง"

    },
    {
      "parentId": "huapan",
      "companyId": "nano-entertainment",
      "locationId": "nano-entertainment-phuket",
      "id": "nano-entertainment-phuket-bassist",
      "name": "Bassist",
      "name_th": "มือเบส"

    },
    {
      "parentId": "huapan",
      "companyId": "nano-entertainment",
      "locationId": "nano-entertainment-phuket",
      "id": "nano-entertainment-phuket-guitarist",
      "name": "Guitarist",
      "name_th": "มือกีตาร์"

    },
    {
      "parentId": "huapan",
      "companyId": "nano-entertainment",
      "locationId": "nano-entertainment-phuket",
      "id": "nano-entertainment-phuket-keyboardist",
      "name": "Keyboardist",
      "name_th": "มือคีย์บอร์ด"

    },
    {
      "parentId": "huapan",
      "companyId": "nano-entertainment",
      "locationId": "nano-entertainment-phuket",
      "id": "nano-entertainment-phuket-drummer",
      "name": "Drummer",
      "name_th": "มือกลอง"

    },
    {
      "parentId": "huapan",
      "companyId": "nano-entertainment",
      "locationId": "nano-entertainment-phuket",
      "id": "nano-entertainment-phuket-sound-engineer",
      "name": "Sound Engineer",
      "name_th": "วิศวกรเสียง"

    },
    {
      "parentId": "huapan",
      "companyId": "nano-entertainment",
      "locationId": "nano-entertainment-phuket",
      "id": "nano-entertainment-phuket-musician",
      "name": "Musician",
      "name_th": "นักดนตรี"

    },
    {
      "parentId": "huapan",
      "companyId": "nano-entertainment",
      "locationId": "nano-entertainment-phuket",
      "id": "nano-entertainment-phuket-dj",
      "name": "DJ",
      "name_th": "ดีเจ"

    },
    {
      "parentId": "huapan",
      "companyId": "nano-entertainment",
      "locationId": "nano-entertainment-phuket",
      "id": "nano-entertainment-phuket-mc",
      "name": "MC",
      "name_th": "พิธีกร"

    },
    {
      "parentId": "huapan",
      "companyId": "nano-entertainment",
      "locationId": "nano-entertainment-phuket",
      "id": "nano-entertainment-phuket-lightmen",
      "name": "Lightmen",
      "name_th": "ช่างไฟ"

    },
    {
      "parentId": "huapan",
      "companyId": "nano-entertainment",
      "locationId": "nano-entertainment-phuket",
      "id": "nano-entertainment-phuket-photographer",
      "name": "Photographer",
      "name_th": "ช่างภาพ"

    },
    {
      "parentId": "huapan",
      "companyId": "nano-entertainment",
      "locationId": "nano-entertainment-phuket",
      "id": "nano-entertainment-phuket-bodyguard",
      "name": "Bodyguard",
      "name_th": "บอดี้การ์ด"

    }





  ],
  "totalData": 10
}
